{
    "links": {
        "self": "http://www.neowsapp.com/rest/v1/neo/54051130?api_key=iIulBulltgU6a56xZRHN4H3l9WmuAYTsLGpBGhQ2"
    },
    "id": "54051130",
    "neo_reference_id": "54051130",
    "name": "(2020 PO5)",
    "designation": "2020 PO5",
    "nasa_jpl_url": "http://ssd.jpl.nasa.gov/sbdb.cgi?sstr=54051130",
    "absolute_magnitude_h": 24.073,
    "estimated_diameter": {
        "kilometers": {
            "estimated_diameter_min": 0.0407338047,
            "estimated_diameter_max": 0.0910835562
        },
        "meters": {
            "estimated_diameter_min": 40.7338046801,
            "estimated_diameter_max": 91.0835562468
        },
        "miles": {
            "estimated_diameter_min": 0.0253108049,
            "estimated_diameter_max": 0.0565966804
        },
        "feet": {
            "estimated_diameter_min": 133.6410957466,
            "estimated_diameter_max": 298.8305746769
        }
    },
    "is_potentially_hazardous_asteroid": false,
    "close_approach_data": [
        {
            "close_approach_date": "2020-08-14",
            "close_approach_date_full": "2020-Aug-14 04:01",
            "epoch_date_close_approach": 1597377660000,
            "relative_velocity": {
                "kilometers_per_second": "3.9283124841",
                "kilometers_per_hour": "14141.9249429072",
                "miles_per_hour": "8787.2421957748"
            },
            "miss_distance": {
                "astronomical": "0.2586158284",
                "lunar": "100.6015572476",
                "kilometers": "38688377.076925508",
                "miles": "24039842.7732796904"
            },
            "orbiting_body": "Earth"
        }
    ],
    "orbital_data": {
        "orbit_id": "1",
        "orbit_determination_date": "2020-08-17 09:42:07",
        "first_observation_date": "2020-08-14",
        "last_observation_date": "2020-08-17",
        "data_arc_in_days": 3,
        "observations_used": 13,
        "orbit_uncertainty": "9",
        "minimum_orbit_intersection": ".256396",
        "jupiter_tisserand_invariant": "3.585",
        "epoch_osculation": "2459077.5",
        "eccentricity": ".413268551853129",
        "semi_major_axis": "2.147315646081525",
        "inclination": "6.969512960241956",
        "ascending_node_longitude": "349.4431989836968",
        "orbital_period": "1149.323428384717",
        "perihelion_distance": "1.259897618653847",
        "perihelion_argument": "327.0269754717334",
        "aphelion_distance": "3.034733673509202",
        "perihelion_time": "2459067.803911135277",
        "mean_anomaly": "3.037084170646404",
        "mean_motion": ".3132277573998047",
        "equinox": "J2000",
        "orbit_class": {
            "orbit_class_type": "AMO",
            "orbit_class_description": "Near-Earth asteroid orbits similar to that of 1221 Amor",
            "orbit_class_range": "1.017 AU < q (perihelion) < 1.3 AU"
        }
    },
    "is_sentry_object": false
}